TEVEL2-1                
1 63217U 25052H   26073.61688072  .00026766  00000+0  90592-3 0  9993
2 63217  97.3988 329.7196 0004986  95.8910 264.2900 15.30562617 55617
TEVEL2-3                
1 63218U 25052J   26073.22208351  .00022359  00000+0  75728-3 0  9997
2 63218  97.3993 329.3377 0004939  96.9719 263.2084 15.30578626 55550
TEVEL2-2                
1 63219U 25052K   26073.15988645  .00022260  00000+0  75480-3 0  9997
2 63219  97.3990 329.2648 0004900  97.5178 262.6619 15.30541286 55540
TEVEL2-9                
1 63237U 25052AD  26073.61147458  .00024133  00000+0  86119-3 0  9999
2 63237  97.4057 329.2758 0008349 110.7420 249.4715 15.28837495 55565
TEVEL2-7                
1 63238U 25052AE  26073.44010049  .00020987  00000+0  75490-3 0  9999
2 63238  97.4061 329.0560 0008462 111.2673 248.9471 15.28605048 55539
TEVEL2-8                
1 63239U 25052AF  26073.57811395  .00024687  00000+0  88741-3 0  9991
2 63239  97.4063 329.1740 0008409 111.3705 248.8433 15.28593389 55554
HADES-ICM               
1 63492U 25052BN  26073.45166952  .00176304  00000+0  22705-2 0  9992
2 63492  97.3933 334.0766 0009144 102.4397 257.7883 15.58396426 55888
INNOSAT 16 (RS92S7)     
1 64878U 25155C   26073.57466857  .00009597  00000+0  39517-3 0  9994
2 64878  97.4465  41.1400 0011588 149.4345 210.7570 15.24267512 66259
GEOSCAN 6 (RS92S6)      
1 64879U 25155D   26073.62647981  .00016206  00000+0  59245-3 0  9995
2 64879  97.4463  42.0037 0009367 139.5291 220.6647 15.28121009 66312
GEOSCAN 1 (RS92S1)      
1 64880U 25155E   26073.59541942  .00018087  00000+0  65216-3 0  9997
2 64880  97.4462  42.0494 0009251 139.7290 220.4637 15.28550612 66316
239ALFEROV (RS61S)      
1 64881U 25155F   26073.61617469  .00022847  00000+0  78414-3 0  9992
2 64881  97.4465  42.3561 0009053 137.8335 222.3604 15.30116653 66330
GEOSCAN 2 (RS92S2)      
1 64890U 25155Q   26073.60680947  .00017565  00000+0  62770-3 0  9991
2 64890  97.4459  42.1738 0009000 127.8544 232.3511 15.28852503 66325
GEOSCAN 5 (RS92S5)      
1 64891U 25155R   26073.62526659  .00023189  00000+0  78792-3 0  9993
2 64891  97.4458  42.4654 0007758 140.9742 219.2060 15.30450168 66348
GEOSCAN 4 (RS92S4)      
1 64892U 25155S   26073.61731291  .00022725  00000+0  76978-3 0  9992
2 64892  97.4461  42.4829 0007740 141.3606 218.8190 15.30553338 66344
GEOSCAN 3 (RS92S3)      
1 64893U 25155T   26073.59094327  .00028325  00000+0  91856-3 0  9996
2 64893  97.4454  42.6566 0007458 141.2465 218.9313 15.31917890 66352
INNOSAT 3 (RS92S0)      
1 64894U 25155U   26073.60762631  .00049855  00000+0  13668-2 0  9994
2 64894  97.4421  43.3593 0007299 135.3959 224.7874 15.37104245 66401
