[{"OBJECT_NAME":"TEVEL2-1","OBJECT_ID":"2025-052H","EPOCH":"2026-03-14T14:48:18.494208","MEAN_MOTION":15.30562617,"ECCENTRICITY":0.00049862,"INCLINATION":97.3988,"RA_OF_ASC_NODE":329.7196,"ARG_OF_PERICENTER":95.891,"MEAN_ANOMALY":264.29,"EPHEMERIS_TYPE":0,"CLASSIFICATION_TYPE":"U","NORAD_CAT_ID":63217,"ELEMENT_SET_NO":999,"REV_AT_EPOCH":5561,"BSTAR":0.00090591503,"MEAN_MOTION_DOT":0.00026766,"MEAN_MOTION_DDOT":0},{"OBJECT_NAME":"TEVEL2-3","OBJECT_ID":"2025-052J","EPOCH":"2026-03-14T05:19:48.015264","MEAN_MOTION":15.30578626,"ECCENTRICITY":0.00049393,"INCLINATION":97.3993,"RA_OF_ASC_NODE":329.3377,"ARG_OF_PERICENTER":96.9719,"MEAN_ANOMALY":263.2084,"EPHEMERIS_TYPE":0,"CLASSIFICATION_TYPE":"U","NORAD_CAT_ID":63218,"ELEMENT_SET_NO":999,"REV_AT_EPOCH":5555,"BSTAR":0.00075727525,"MEAN_MOTION_DOT":0.00022359,"MEAN_MOTION_DDOT":0},{"OBJECT_NAME":"TEVEL2-2","OBJECT_ID":"2025-052K","EPOCH":"2026-03-14T03:50:14.189280","MEAN_MOTION":15.30541286,"ECCENTRICITY":0.00049004,"INCLINATION":97.399,"RA_OF_ASC_NODE":329.2648,"ARG_OF_PERICENTER":97.5178,"MEAN_ANOMALY":262.6619,"EPHEMERIS_TYPE":0,"CLASSIFICATION_TYPE":"U","NORAD_CAT_ID":63219,"ELEMENT_SET_NO":999,"REV_AT_EPOCH":5554,"BSTAR":0.00075479666,"MEAN_MOTION_DOT":0.0002226,"MEAN_MOTION_DDOT":0},{"OBJECT_NAME":"TEVEL2-9","OBJECT_ID":"2025-052AD","EPOCH":"2026-03-14T14:40:31.403712","MEAN_MOTION":15.28837495,"ECCENTRICITY":0.00083498,"INCLINATION":97.4057,"RA_OF_ASC_NODE":329.2758,"ARG_OF_PERICENTER":110.742,"MEAN_ANOMALY":249.4715,"EPHEMERIS_TYPE":0,"CLASSIFICATION_TYPE":"U","NORAD_CAT_ID":63237,"ELEMENT_SET_NO":999,"REV_AT_EPOCH":5556,"BSTAR":0.0008611899,"MEAN_MOTION_DOT":0.00024133,"MEAN_MOTION_DDOT":0},{"OBJECT_NAME":"TEVEL2-7","OBJECT_ID":"2025-052AE","EPOCH":"2026-03-14T10:33:44.682336","MEAN_MOTION":15.28605048,"ECCENTRICITY":0.00084623,"INCLINATION":97.4061,"RA_OF_ASC_NODE":329.056,"ARG_OF_PERICENTER":111.2673,"MEAN_ANOMALY":248.9471,"EPHEMERIS_TYPE":0,"CLASSIFICATION_TYPE":"U","NORAD_CAT_ID":63238,"ELEMENT_SET_NO":999,"REV_AT_EPOCH":5553,"BSTAR":0.00075490152,"MEAN_MOTION_DOT":0.00020987,"MEAN_MOTION_DDOT":0},{"OBJECT_NAME":"TEVEL2-8","OBJECT_ID":"2025-052AF","EPOCH":"2026-03-14T13:52:29.045280","MEAN_MOTION":15.28593389,"ECCENTRICITY":0.00084098,"INCLINATION":97.4063,"RA_OF_ASC_NODE":329.174,"ARG_OF_PERICENTER":111.3705,"MEAN_ANOMALY":248.8433,"EPHEMERIS_TYPE":0,"CLASSIFICATION_TYPE":"U","NORAD_CAT_ID":63239,"ELEMENT_SET_NO":999,"REV_AT_EPOCH":5555,"BSTAR":0.00088741036,"MEAN_MOTION_DOT":0.00024687,"MEAN_MOTION_DDOT":0},{"OBJECT_NAME":"HADES-ICM","OBJECT_ID":"2025-052BN","EPOCH":"2026-03-14T10:50:24.246528","MEAN_MOTION":15.58396426,"ECCENTRICITY":0.00091447,"INCLINATION":97.3933,"RA_OF_ASC_NODE":334.0766,"ARG_OF_PERICENTER":102.4397,"MEAN_ANOMALY":257.7883,"EPHEMERIS_TYPE":0,"CLASSIFICATION_TYPE":"U","NORAD_CAT_ID":63492,"ELEMENT_SET_NO":999,"REV_AT_EPOCH":5588,"BSTAR":0.0022705091,"MEAN_MOTION_DOT":0.00176304,"MEAN_MOTION_DDOT":0},{"OBJECT_NAME":"INNOSAT 16 (RS92S7)","OBJECT_ID":"2025-155C","EPOCH":"2026-03-14T13:47:31.364448","MEAN_MOTION":15.24267512,"ECCENTRICITY":0.00115885,"INCLINATION":97.4465,"RA_OF_ASC_NODE":41.14,"ARG_OF_PERICENTER":149.4345,"MEAN_ANOMALY":210.757,"EPHEMERIS_TYPE":0,"CLASSIFICATION_TYPE":"U","NORAD_CAT_ID":64878,"ELEMENT_SET_NO":999,"REV_AT_EPOCH":6625,"BSTAR":0.00039516872,"MEAN_MOTION_DOT":9.597e-5,"MEAN_MOTION_DDOT":0},{"OBJECT_NAME":"GEOSCAN 6 (RS92S6)","OBJECT_ID":"2025-155D","EPOCH":"2026-03-14T15:02:07.855584","MEAN_MOTION":15.28121009,"ECCENTRICITY":0.0009367,"INCLINATION":97.4463,"RA_OF_ASC_NODE":42.0037,"ARG_OF_PERICENTER":139.5291,"MEAN_ANOMALY":220.6647,"EPHEMERIS_TYPE":0,"CLASSIFICATION_TYPE":"U","NORAD_CAT_ID":64879,"ELEMENT_SET_NO":999,"REV_AT_EPOCH":6631,"BSTAR":0.00059244955,"MEAN_MOTION_DOT":0.00016206,"MEAN_MOTION_DDOT":0},{"OBJECT_NAME":"GEOSCAN 1 (RS92S1)","OBJECT_ID":"2025-155E","EPOCH":"2026-03-14T14:17:24.237888","MEAN_MOTION":15.28550612,"ECCENTRICITY":0.00092518,"INCLINATION":97.4462,"RA_OF_ASC_NODE":42.0494,"ARG_OF_PERICENTER":139.729,"MEAN_ANOMALY":220.4637,"EPHEMERIS_TYPE":0,"CLASSIFICATION_TYPE":"U","NORAD_CAT_ID":64880,"ELEMENT_SET_NO":999,"REV_AT_EPOCH":6631,"BSTAR":0.00065216055,"MEAN_MOTION_DOT":0.00018087,"MEAN_MOTION_DDOT":0},{"OBJECT_NAME":"239ALFEROV (RS61S)","OBJECT_ID":"2025-155F","EPOCH":"2026-03-14T14:47:17.493216","MEAN_MOTION":15.30116653,"ECCENTRICITY":0.00090532,"INCLINATION":97.4465,"RA_OF_ASC_NODE":42.3561,"ARG_OF_PERICENTER":137.8335,"MEAN_ANOMALY":222.3604,"EPHEMERIS_TYPE":0,"CLASSIFICATION_TYPE":"U","NORAD_CAT_ID":64881,"ELEMENT_SET_NO":999,"REV_AT_EPOCH":6633,"BSTAR":0.00078413506,"MEAN_MOTION_DOT":0.00022847,"MEAN_MOTION_DDOT":0},{"OBJECT_NAME":"GEOSCAN 2 (RS92S2)","OBJECT_ID":"2025-155Q","EPOCH":"2026-03-14T14:33:48.338208","MEAN_MOTION":15.28852503,"ECCENTRICITY":0.0009,"INCLINATION":97.4459,"RA_OF_ASC_NODE":42.1738,"ARG_OF_PERICENTER":127.8544,"MEAN_ANOMALY":232.3511,"EPHEMERIS_TYPE":0,"CLASSIFICATION_TYPE":"U","NORAD_CAT_ID":64890,"ELEMENT_SET_NO":999,"REV_AT_EPOCH":6632,"BSTAR":0.00062770337,"MEAN_MOTION_DOT":0.00017565,"MEAN_MOTION_DDOT":0},{"OBJECT_NAME":"GEOSCAN 5 (RS92S5)","OBJECT_ID":"2025-155R","EPOCH":"2026-03-14T15:00:23.033376","MEAN_MOTION":15.30450168,"ECCENTRICITY":0.00077589,"INCLINATION":97.4458,"RA_OF_ASC_NODE":42.4654,"ARG_OF_PERICENTER":140.9742,"MEAN_ANOMALY":219.206,"EPHEMERIS_TYPE":0,"CLASSIFICATION_TYPE":"U","NORAD_CAT_ID":64891,"ELEMENT_SET_NO":999,"REV_AT_EPOCH":6634,"BSTAR":0.00078791867,"MEAN_MOTION_DOT":0.00023189,"MEAN_MOTION_DDOT":0},{"OBJECT_NAME":"GEOSCAN 4 (RS92S4)","OBJECT_ID":"2025-155S","EPOCH":"2026-03-14T14:48:55.835424","MEAN_MOTION":15.30553338,"ECCENTRICITY":0.00077402,"INCLINATION":97.4461,"RA_OF_ASC_NODE":42.4829,"ARG_OF_PERICENTER":141.3606,"MEAN_ANOMALY":218.819,"EPHEMERIS_TYPE":0,"CLASSIFICATION_TYPE":"U","NORAD_CAT_ID":64892,"ELEMENT_SET_NO":999,"REV_AT_EPOCH":6634,"BSTAR":0.00076977993,"MEAN_MOTION_DOT":0.00022725,"MEAN_MOTION_DDOT":0},{"OBJECT_NAME":"GEOSCAN 3 (RS92S3)","OBJECT_ID":"2025-155T","EPOCH":"2026-03-14T14:10:57.498528","MEAN_MOTION":15.3191789,"ECCENTRICITY":0.00074585,"INCLINATION":97.4454,"RA_OF_ASC_NODE":42.6566,"ARG_OF_PERICENTER":141.2465,"MEAN_ANOMALY":218.9313,"EPHEMERIS_TYPE":0,"CLASSIFICATION_TYPE":"U","NORAD_CAT_ID":64893,"ELEMENT_SET_NO":999,"REV_AT_EPOCH":6635,"BSTAR":0.00091856189,"MEAN_MOTION_DOT":0.00028325,"MEAN_MOTION_DDOT":0},{"OBJECT_NAME":"INNOSAT 3 (RS92S0)","OBJECT_ID":"2025-155U","EPOCH":"2026-03-14T14:34:58.913184","MEAN_MOTION":15.37104245,"ECCENTRICITY":0.00072993,"INCLINATION":97.4421,"RA_OF_ASC_NODE":43.3593,"ARG_OF_PERICENTER":135.3959,"MEAN_ANOMALY":224.7874,"EPHEMERIS_TYPE":0,"CLASSIFICATION_TYPE":"U","NORAD_CAT_ID":64894,"ELEMENT_SET_NO":999,"REV_AT_EPOCH":6640,"BSTAR":0.0013667576,"MEAN_MOTION_DOT":0.00049855,"MEAN_MOTION_DDOT":0}]
